line1,line2,validFromUtcTime
1 00000U 00000E   26001.00000000  .00000000  00000-0  27772-4 0    01,2 00000  88.8959 135.3349 0010185 270.5963 141.8003 13.55307070    02,2026-01-01T00:00:00Z
1 00000U 00000E   26002.00000000  .00000000  00000-0  27772-4 0    02,2 00000  88.8959 135.2226 0010185 267.6862 340.9043 13.55307109    09,2026-01-02T00:00:00Z
